ONEWEB-0233             
1 48795U 21045AE  25353.21929389  .00000108  00000+0  25229-3 0  9997
2 48795  87.8999 295.1550 0001863  67.4102 292.7226 13.15550630220632
ONEWEB-0190             
1 48796U 21045AF  25353.28282897  .00000160  00000+0  39090-3 0  9990
2 48796  87.8996 295.1034 0002371  60.6410 299.4957 13.15549052220719
ONEWEB-0236             
1 48797U 21045AG  25353.22418765  .00000053  00000+0  10742-3 0  9994
2 48797  87.8996 295.1270 0001664  79.2199 280.9118 13.15550327220593
ONEWEB-0248             
1 48798U 21045AH  25353.23686517  .00000060  00000+0  12481-3 0  9998
2 48798  87.9010 295.0883 0001899  57.1923 302.9390 13.15545921220750
ONEWEB-0225             
1 48799U 21045AJ  25353.25904354 -.00000366  00000+0 -10072-2 0  9997
2 48799  87.8998 295.1075 0002232  64.0510 296.0850 13.15548836220763
ONEWEB-0215             
1 48800U 21045AK  25353.22893977 -.00000020  00000+0 -87312-4 0  9995
2 48800  87.9016 295.0758 0002130  58.8498 301.2841 13.15550380220630
ONEWEB-0216             
1 48801U 21045AL  25353.23845786  .00000001  00000+0 -31061-4 0  9990
2 48801  87.9001 295.1037 0002027  79.1174 281.0185 13.15550016220641
ONEWEB-0239             
1 48802U 21045AM  25353.24320012 -.00000028  00000+0 -10772-3 0  9997
2 48802  87.8999 295.1173 0001940  52.7211 307.4096 13.15546881220683
